{"type": "FeatureCollection", "features": [ {"type": "Feature", "properties": {"norad_id": 54234, "name": "NOAA 21 (JPSS-2)", "group": "weather", "lat": 3.8769782112186104, "lon": 113.98588029687579, "alt_km": 830.5352192587025, "timestamp": "2025-12-23T05:02:11.667035+00:00", "meta": {"OBJECT_NAME": "NOAA 21 (JPSS-2)", "OBJECT_ID": "2022-150A", "EPOCH": "2025-12-22T21:26:37.382208", "MEAN_MOTION": 14.1952682, "ECCENTRICITY": 0.00017628, "INCLINATION": 98.7476, "RA_OF_ASC_NODE": 293.0756, "ARG_OF_PERICENTER": 17.3909, "MEAN_ANOMALY": 342.7327, "EPHEMERIS_TYPE": 0, "CLASSIFICATION_TYPE": "U", "NORAD_CAT_ID": 54234, "ELEMENT_SET_NO": 999, "REV_AT_EPOCH": 16153, "BSTAR": 5.6441503e-05, "MEAN_MOTION_DOT": 7.5e-07, "MEAN_MOTION_DDOT": 0}, "tle": {"line1": "1 54234U 22150A   25356.89348822  .00000075  00000+0  56442-4 0  9999", "line2": "2 54234  98.7476 293.0756 0001762  17.3909 342.7327 14.19526820161530"}}, "geometry": {"type": "Point", "coordinates": [113.98588029687579, 3.8769782112186104]}}, {"type": "Feature", "properties": {"norad_id": 54743, "name": "METEOSAT-12 (MTG-I1)", "group": "weather", "lat": 0.43881082005378674, "lon": 167.21347284563245, "alt_km": 35787.224681948435, "timestamp": "2025-12-23T05:02:11.667047+00:00", "meta": {"OBJECT_NAME": "METEOSAT-12 (MTG-I1)", "OBJECT_ID": "2022-170C", "EPOCH": "2025-12-22T18:17:54.930912", "MEAN_MOTION": 1.00270779, "ECCENTRICITY": 0.00015239, "INCLINATION": 0.6971, "RA_OF_ASC_NODE": 25.253, "ARG_OF_PERICENTER": 240.2119, "MEAN_ANOMALY": 100.261, "EPHEMERIS_TYPE": 0, "CLASSIFICATION_TYPE": "U", "NORAD_CAT_ID": 54743, "ELEMENT_SET_NO": 999, "REV_AT_EPOCH": 1120, "BSTAR": 0, "MEAN_MOTION_DOT": 1.4e-07, "MEAN_MOTION_DDOT": 0}, "tle": {"line1": "1 54743U 22170C   25356.76244133  .00000014  00000+0  00000+0 0  9999", "line2": "2 54743   0.6971  25.2530 0001523 240.2119 100.2610  1.00270779 11202"}}, "geometry": {"type": "Point", "coordinates": [167.21347284563245, 0.43881082005378674]}}, {"type": "Feature", "properties": {"norad_id": 55973, "name": "TIANMU-1 03", "group": "weather", "lat": -4.6302900887791845, "lon": 160.76801822953146, "alt_km": 444.0396195711364, "timestamp": "2025-12-23T05:02:11.667058+00:00", "meta": {"OBJECT_NAME": "TIANMU-1 03", "OBJECT_ID": "2023-039A", "EPOCH": "2025-12-22T22:49:25.918752", "MEAN_MOTION": 15.41207773, "ECCENTRICITY": 0.00039177, "INCLINATION": 97.511, "RA_OF_ASC_NODE": 159.8896, "ARG_OF_PERICENTER": 31.8558, "MEAN_ANOMALY": 328.2924, "EPHEMERIS_TYPE": 0, "CLASSIFICATION_TYPE": "U", "NORAD_CAT_ID": 55973, "ELEMENT_SET_NO": 999, "REV_AT_EPOCH": 15363, "BSTAR": 0.00039470656, "MEAN_MOTION_DOT": 0.00016318, "MEAN_MOTION_DDOT": 0}, "tle": {"line1": "1 55973U 23039A   25356.95099443  .00016318  00000+0  39471-3 0  9995", "line2": "2 55973  97.5110 159.8896 0003917  31.8558 328.2924 15.41207773153635"}}, "geometry": {"type": "Point", "coordinates": [160.76801822953146, -4.6302900887791845]}}, {"type": "Feature", "properties": {"norad_id": 55974, "name": "TIANMU-1 04", "group": "weather", "lat": 56.89393183780698, "lon": -8.99379303300127, "alt_km": 436.53210605537424, "timestamp": "2025-12-23T05:02:11.667068+00:00", "meta": {"OBJECT_NAME": "TIANMU-1 04", "OBJECT_ID": "2023-039B", "EPOCH": "2025-12-22T22:16:36.301152", "MEAN_MOTION": 15.41548941, "ECCENTRICITY": 0.00045233, "INCLINATION": 97.5042, "RA_OF_ASC_NODE": 159.0531, "ARG_OF_PERICENTER": 25.2016, "MEAN_ANOMALY": 334.945, "EPHEMERIS_TYPE": 0, "CLASSIFICATION_TYPE": "U", "NORAD_CAT_ID": 55974, "ELEMENT_SET_NO": 999, "REV_AT_EPOCH": 15363, "BSTAR": 0.0003944484, "MEAN_MOTION_DOT": 0.00016495, "MEAN_MOTION_DDOT": 0}, "tle": {"line1": "1 55974U 23039B   25356.92819793  .00016495  00000+0  39445-3 0  9998", "line2": "2 55974  97.5042 159.0531 0004523  25.2016 334.9450 15.41548941153631"}}, "geometry": {"type": "Point", "coordinates": [-8.99379303300127, 56.89393183780698]}}, {"type": "Feature", "properties": {"norad_id": 55975, "name": "TIANMU-1 05", "group": "weather", "lat": 39.714168310361195, "lon": -13.874533138312863, "alt_km": 439.68167259689744, "timestamp": "2025-12-23T05:02:11.667080+00:00", "meta": {"OBJECT_NAME": "TIANMU-1 05", "OBJECT_ID": "2023-039C", "EPOCH": "2025-12-22T23:45:27.359136", "MEAN_MOTION": 15.41166447, "ECCENTRICITY": 0.00040322, "INCLINATION": 97.5088, "RA_OF_ASC_NODE": 159.6093, "ARG_OF_PERICENTER": 50.2084, "MEAN_ANOMALY": 309.9517, "EPHEMERIS_TYPE": 0, "CLASSIFICATION_TYPE": "U", "NORAD_CAT_ID": 55975, "ELEMENT_SET_NO": 999, "REV_AT_EPOCH": 15362, "BSTAR": 0.00040005396, "MEAN_MOTION_DOT": 0.00016518, "MEAN_MOTION_DDOT": 0}, "tle": {"line1": "1 55975U 23039C   25356.98989999  .00016518  00000+0  40005-3 0  9991", "line2": "2 55975  97.5088 159.6093 0004032  50.2084 309.9517 15.41166447153621"}}, "geometry": {"type": "Point", "coordinates": [-13.874533138312863, 39.714168310361195]}}, {"type": "Feature", "properties": {"norad_id": 55976, "name": "TIANMU-1 06", "group": "weather", "lat": 66.61509245925913, "lon": -1.9282446321794355, "alt_km": 433.82444844088695, "timestamp": "2025-12-23T05:02:11.667090+00:00", "meta": {"OBJECT_NAME": "TIANMU-1 06", "OBJECT_ID": "2023-039D", "EPOCH": "2025-12-22T22:19:14.733696", "MEAN_MOTION": 15.41600282, "ECCENTRICITY": 0.00043047, "INCLINATION": 97.5099, "RA_OF_ASC_NODE": 160.0213, "ARG_OF_PERICENTER": 44.5003, "MEAN_ANOMALY": 315.6588, "EPHEMERIS_TYPE": 0, "CLASSIFICATION_TYPE": "U", "NORAD_CAT_ID": 55976, "ELEMENT_SET_NO": 999, "REV_AT_EPOCH": 15363, "BSTAR": 0.00039211338, "MEAN_MOTION_DOT": 0.00016424, "MEAN_MOTION_DDOT": 0}, "tle": {"line1": "1 55976U 23039D   25356.93003164  .00016424  00000+0  39211-3 0  9991", "line2": "2 55976  97.5099 160.0213 0004304  44.5003 315.6588 15.41600282153636"}}, "geometry": {"type": "Point", "coordinates": [-1.9282446321794355, 66.61509245925913]}}, {"type": "Feature", "properties": {"norad_id": 56232, "name": "FENGYUN 3G", "group": "weather", "lat": 18.298749900289174, "lon": -170.4751856647478, "alt_km": 408.46348889167166, "timestamp": "2025-12-23T05:02:11.667100+00:00", "meta": {"OBJECT_NAME": "FENGYUN 3G", "OBJECT_ID": "2023-055A", "EPOCH": "2025-12-22T22:45:38.646144", "MEAN_MOTION": 15.54225863, "ECCENTRICITY": 0.00092784, "INCLINATION": 49.9923, "RA_OF_ASC_NODE": 174.7496, "ARG_OF_PERICENTER": 194.3809, "MEAN_ANOMALY": 165.6896, "EPHEMERIS_TYPE": 0, "CLASSIFICATION_TYPE": "U", "NORAD_CAT_ID": 56232, "ELEMENT_SET_NO": 999, "REV_AT_EPOCH": 15261, "BSTAR": 0.00049139864, "MEAN_MOTION_DOT": 0.00032402, "MEAN_MOTION_DDOT": 0}, "tle": {"line1": "1 56232U 23055A   25356.94836396  .00032402  00000+0  49140-3 0  9993", "line2": "2 56232  49.9923 174.7496 0009278 194.3809 165.6896 15.54225863152611"}}, "geometry": {"type": "Point", "coordinates": [-170.4751856647478, 18.298749900289174]}}, {"type": "Feature", "properties": {"norad_id": 57166, "name": "METEOR-M2 3", "group": "weather", "lat": -69.97003292874611, "lon": -154.07282281471623, "alt_km": 818.8056929359973, "timestamp": "2025-12-23T05:02:11.667111+00:00", "meta": {"OBJECT_NAME": "METEOR-M2 3", "OBJECT_ID": "2023-091A", "EPOCH": "2025-12-22T22:47:54.047904", "MEAN_MOTION": 14.24027289, "ECCENTRICITY": 0.00033588, "INCLINATION": 98.6364, "RA_OF_ASC_NODE": 50.3103, "ARG_OF_PERICENTER": 337.5057, "MEAN_ANOMALY": 22.5974, "EPHEMERIS_TYPE": 0, "CLASSIFICATION_TYPE": "U", "NORAD_CAT_ID": 57166, "ELEMENT_SET_NO": 999, "REV_AT_EPOCH": 12943, "BSTAR": 2.947555e-05, "MEAN_MOTION_DOT": 2.4e-07, "MEAN_MOTION_DDOT": 0}, "tle": {"line1": "1 57166U 23091A   25356.94993111  .00000024  00000+0  29476-4 0  9995", "line2": "2 57166  98.6364  50.3103 0003358 337.5057  22.5974 14.24027289129431"}}, "geometry": {"type": "Point", "coordinates": [-154.07282281471623, -69.97003292874611]}}, {"type": "Feature", "properties": {"norad_id": 57399, "name": "TIANMU-1 07", "group": "weather", "lat": 36.15874744309803, "lon": 41.46406610186741, "alt_km": 475.3785155935793, "timestamp": "2025-12-23T05:02:11.667121+00:00", "meta": {"OBJECT_NAME": "TIANMU-1 07", "OBJECT_ID": "2023-101A", "EPOCH": "2025-12-22T22:35:29.743872", "MEAN_MOTION": 15.28209172, "ECCENTRICITY": 0.0005137, "INCLINATION": 97.2857, "RA_OF_ASC_NODE": 46.5662, "ARG_OF_PERICENTER": 55.694, "MEAN_ANOMALY": 304.4785, "EPHEMERIS_TYPE": 0, "CLASSIFICATION_TYPE": "U", "NORAD_CAT_ID": 57399, "ELEMENT_SET_NO": 999, "REV_AT_EPOCH": 13471, "BSTAR": 0.00029252985, "MEAN_MOTION_DOT": 7.973e-05, "MEAN_MOTION_DDOT": 0}, "tle": {"line1": "1 57399U 23101A   25356.94131648  .00007973  00000+0  29253-3 0  9996", "line2": "2 57399  97.2857  46.5662 0005137  55.6940 304.4785 15.28209172134711"}}, "geometry": {"type": "Point", "coordinates": [41.46406610186741, 36.15874744309803]}}, {"type": "Feature", "properties": {"norad_id": 57400, "name": "TIANMU-1 08", "group": "weather", "lat": -37.468287289734825, "lon": -139.00164851183214, "alt_km": 492.3453289669342, "timestamp": "2025-12-23T05:02:11.667131+00:00", "meta": {"OBJECT_NAME": "TIANMU-1 08", "OBJECT_ID": "2023-101B", "EPOCH": "2025-12-22T23:22:21.364896", "MEAN_MOTION": 15.28191699, "ECCENTRICITY": 0.00070936, "INCLINATION": 97.2847, "RA_OF_ASC_NODE": 46.3942, "ARG_OF_PERICENTER": 54.9959, "MEAN_ANOMALY": 305.1946, "EPHEMERIS_TYPE": 0, "CLASSIFICATION_TYPE": "U", "NORAD_CAT_ID": 57400, "ELEMENT_SET_NO": 999, "REV_AT_EPOCH": 13471, "BSTAR": 0.00029753844, "MEAN_MOTION_DOT": 8.109e-05, "MEAN_MOTION_DDOT": 0}, "tle": {"line1": "1 57400U 23101B   25356.97385839  .00008109  00000+0  29754-3 0  9993", "line2": "2 57400  97.2847  46.3942 0007093  54.9959 305.1946 15.28191699134718"}}, "geometry": {"type": "Point", "coordinates": [-139.00164851183214, -37.468287289734825]}}]}